{
    "links": {
        "self": "http://www.neowsapp.com/rest/v1/neo/3989358?api_key=iIulBulltgU6a56xZRHN4H3l9WmuAYTsLGpBGhQ2"
    },
    "id": "3989358",
    "neo_reference_id": "3989358",
    "name": "(2020 BM15)",
    "designation": "2020 BM15",
    "nasa_jpl_url": "http://ssd.jpl.nasa.gov/sbdb.cgi?sstr=3989358",
    "absolute_magnitude_h": 24.599,
    "estimated_diameter": {
        "kilometers": {
            "estimated_diameter_min": 0.0319709084,
            "estimated_diameter_max": 0.0714891246
        },
        "meters": {
            "estimated_diameter_min": 31.97090843,
            "estimated_diameter_max": 71.4891245518
        },
        "miles": {
            "estimated_diameter_min": 0.0198657953,
            "estimated_diameter_max": 0.0444212688
        },
        "feet": {
            "estimated_diameter_min": 104.8914352133,
            "estimated_diameter_max": 234.5443793945
        }
    },
    "is_potentially_hazardous_asteroid": false,
    "close_approach_data": [
        {
            "close_approach_date": "2020-02-02",
            "close_approach_date_full": "2020-Feb-02 19:10",
            "epoch_date_close_approach": 1580670600000,
            "relative_velocity": {
                "kilometers_per_second": "12.5087375806",
                "kilometers_per_hour": "45031.4552901967",
                "miles_per_hour": "27980.795094067"
            },
            "miss_distance": {
                "astronomical": "0.1240911206",
                "lunar": "48.2714459134",
                "kilometers": "18563767.327673122",
                "miles": "11534990.1328162036"
            },
            "orbiting_body": "Earth"
        }
    ],
    "orbital_data": {
        "orbit_id": "1",
        "orbit_determination_date": "2020-02-01 22:42:27",
        "first_observation_date": "2020-01-31",
        "last_observation_date": "2020-02-02",
        "data_arc_in_days": 2,
        "observations_used": 17,
        "orbit_uncertainty": "9",
        "minimum_orbit_intersection": ".115518",
        "jupiter_tisserand_invariant": "4.670",
        "epoch_osculation": "2458881.5",
        "eccentricity": ".2146968562692148",
        "semi_major_axis": "1.391882098095502",
        "inclination": "22.82620097843052",
        "ascending_node_longitude": "311.2960376905403",
        "orbital_period": "599.7939772867967",
        "perihelion_distance": "1.093049387336999",
        "perihelion_argument": "197.515580476818",
        "aphelion_distance": "1.690714808854006",
        "perihelion_time": "2458896.064151809367",
        "mean_anomaly": "351.2585073376536",
        "mean_motion": ".6002060934797665",
        "equinox": "J2000",
        "orbit_class": {
            "orbit_class_type": "AMO",
            "orbit_class_description": "Near-Earth asteroid orbits similar to that of 1221 Amor",
            "orbit_class_range": "1.017 AU < q (perihelion) < 1.3 AU"
        }
    },
    "is_sentry_object": false
}